[{"OBJECT_NAME":"STARLINK-31749","OBJECT_ID":"2024-082A","EPOCH":"2026-03-09T05:13:33.688128","MEAN_MOTION":15.27576194,"ECCENTRICITY":0.00013155,"INCLINATION":43.0051,"RA_OF_ASC_NODE":142.1439,"ARG_OF_PERICENTER":265.9053,"MEAN_ANOMALY":94.1648,"EPHEMERIS_TYPE":0,"CLASSIFICATION_TYPE":"U","NORAD_CAT_ID":59631,"ELEMENT_SET_NO":999,"REV_AT_EPOCH":10494,"BSTAR":-4.796618e-5,"MEAN_MOTION_DOT":-1.582e-5,"MEAN_MOTION_DDOT":0},{"OBJECT_NAME":"FENGYUN 1C DEB","OBJECT_ID":"1999-025CUZ","EPOCH":"2026-03-07T03:33:19.659744","MEAN_MOTION":15.49361115,"ECCENTRICITY":0.0121693,"INCLINATION":97.0067,"RA_OF_ASC_NODE":319.8074,"ARG_OF_PERICENTER":141.5541,"MEAN_ANOMALY":219.4462,"EPHEMERIS_TYPE":0,"CLASSIFICATION_TYPE":"U","NORAD_CAT_ID":32203,"ELEMENT_SET_NO":999,"REV_AT_EPOCH":76401,"BSTAR":0.00044112138,"MEAN_MOTION_DOT":0.00032745,"MEAN_MOTION_DDOT":0}]
